STARLINK-31122          
1 58774U 24011K   24093.93304915 -.00002909  00000+0 -18395-3 0  9991
2 58774  53.1600 329.4553 0001252  94.0723 266.0410 15.04916536 13399
STARLINK-31123          
1 58775U 24011L   24093.92982598  .00000526  00000+0  56098-4 0  9994
2 58775  53.1604 329.4346 0000941 110.7618 249.3473 15.04927952 13394
STARLINK-31117          
1 58776U 24011M   24093.92660857  .00001222  00000+0  10473-3 0  9996
2 58776  53.1601 329.4141 0001334  93.3174 266.7969 15.04927763 13398
STARLINK-31132          
1 58777U 24011N   24094.61403869  .00016585  00000+0  61010-3 0  9993
2 58777  53.1613 316.7847 0000889  93.3069 266.8032 15.28018298 13630
STARLINK-31120          
1 58778U 24011P   24094.38075992  .00000750  00000+0  71724-4 0  9991
2 58778  53.1594 327.2695 0001067  89.3956 270.7156 15.04928711 13462
STARLINK-31142          
1 58779U 24011Q   24094.38504579  .00002086  00000+0  16501-3 0  9995
2 58779  53.1584 327.2968 0000954 110.0152 250.0940 15.04933372 13460
STARLINK-31103          
1 58780U 24011R   24094.58251969  .00020813  00000+0  64469-3 0  9995
2 58780  53.1617 318.0180 0007165 191.5652 168.5187 15.33417644 13617
STARLINK-31099          
1 58781U 24011S   24094.37111009  .00001985  00000+0  15799-3 0  9994
2 58781  53.1597 327.2109 0001134  89.3414 270.7706 15.04926395 13460
STARLINK-31060          
1 58782U 24011T   24094.31548724  .00065544  00000+0  23584-2 0  9998
2 58782  53.1588 319.1818 0000719  58.0563 302.0507 15.28016036 13572
STARLINK-31047          
1 58783U 24011U   24094.62709936  .00004677  00000+0  34579-3 0  9994
2 58783  53.1591 325.9643 0001122  92.9511 267.1607 15.04931716 13507
STARLINK-31039          
1 58784U 24011V   24094.36788569  .00000263  00000+0  37705-4 0  9997
2 58784  53.1602 327.1905 0000929  88.7078 271.4018 15.04926525 13462
STARLINK-31034          
1 58785U 24011W   24093.91302673  .00004801  00000+0  18557-3 0  9991
2 58785  53.1583 318.7845 0000844 229.0110 131.0817 15.28073071 13411
STARLINK-31024          
1 58786U 24011X   24094.36467096  .00004990  00000+0  36767-3 0  9995
2 58786  53.1594 327.1704 0001267  87.8634 272.2501 15.04930605 13465
STARLINK-31189          
1 58787U 24012A   24094.55310903  .00003367  00000+0  13837-3 0  9992
2 58787  43.0016 180.6789 0000649 277.4771  82.6006 15.25941135 13477
STARLINK-31185          
1 58788U 24012B   24094.55087640 -.00008492  00000+0 -31562-3 0  9993
2 58788  43.0015 180.6586 0001141 241.8369 118.2367 15.25864245 13470
STARLINK-31166          
1 58789U 24012C   24094.50110292  .00001480  00000+0  66392-4 0  9997
2 58789  42.9968 180.2940 0000283 290.7192  69.3629 15.25907011 13330
STARLINK-31187          
1 58790U 24012D   24094.54634363  .00034174  00000+0  13093-2 0  9997
2 58790  42.9999 180.6241 0000891 286.4878  73.5875 15.25933069 13480
STARLINK-31162          
1 58791U 24012E   24094.56443548  .00007088  00000+0  28046-3 0  9992
2 58791  43.0028 180.7770 0001179 277.2777  82.7940 15.25920842 13479
STARLINK-31194          
1 58792U 24012F   24094.58407353  .00088806  00000+0  87326-3 0  9992
2 58792  42.9941 164.3305 0008017  39.5208 320.6241 15.64975975 13669
STARLINK-31184          
1 58793U 24012G   24094.60501045  .00005635  00000+0  22500-3 0  9991
2 58793  42.9996 180.2023 0000958 264.2582  95.8159 15.25922906 13484
STARLINK-31192          
1 58794U 24012H   24094.55978403 -.00002507  00000+0 -86067-4 0  9998
2 58794  43.0032 179.8711 0001069 263.1707  96.9023 15.25900899 13486
STARLINK-31161          
1 58795U 24012J   24094.60048531  .00049768  00000+0  18962-2 0  9990
2 58795  42.9984 180.1700 0001044 274.7047  85.3684 15.25968694 13484
STARLINK-31195          
1 58796U 24012K   24094.59821737 -.00000122  00000+0  51802-5 0  9991
2 58796  42.9993 180.1545 0001322 285.0283  75.0422 15.25918663 13485
STARLINK-31193          
1 58797U 24012L   24094.59598248  .00017245  00000+0  66648-3 0  9995
2 58797  42.9987 180.1389 0001204 286.0015  74.0704 15.25963054 13484
STARLINK-31168          
1 58798U 24012M   24094.59368068  .00010865  00000+0  42395-3 0  9995
2 58798  42.9993 180.1236 0001304 272.8712  87.1989 15.25958094 13489
STARLINK-31154          
1 58799U 24012N   24094.35889217  .00026231  00000+0  65597-3 0  9997
2 58799  43.0002 176.6246 0009247  33.9298 326.2148 15.39581878 13507
STARLINK-31191          
1 58800U 24012P   24094.59145036  .00011454  00000+0  44680-3 0  9991
2 58800  42.9969 180.1088 0000430 277.9843  82.0959 15.25925650 13484
STARLINK-31170          
1 58801U 24012Q   24094.58918864  .00023757  00000+0  91462-3 0  9997
2 58801  42.9941 180.0907 0000658 272.8479  87.2296 15.25927758 13487
STARLINK-31173          
1 58802U 24012R   24094.54456803 -.00012769  00000+0 -42764-3 0  9998
2 58802  43.0017 154.0590 0000711  81.7006 278.3927 15.29607553 13785
STARLINK-31141          
1 58803U 24012S   24094.58239227 -.00002943  00000+0 -10274-3 0  9996
2 58803  43.0001 180.0474 0001255 273.2459  86.8248 15.25897990 13480
STARLINK-31188          
1 58804U 24012T   24094.58465695  .00025139  00000+0  96698-3 0  9991
2 58804  42.9977 180.0611 0000721 275.6476  84.4292 15.25930893 13489
STARLINK-31105          
1 58805U 24012U   24094.51441979  .00070289  00000+0  26462-2 0  9991
2 58805  42.9992 180.3963 0001090 289.3464  70.7270 15.26223353 13479
STARLINK-31138          
1 58806U 24012V   24094.55750836  .00004276  00000+0  17313-3 0  9990
2 58806  43.0034 179.8501 0001140 263.3631  96.7090 15.25922782 13484
STARLINK-31163          
1 58807U 24012W   24094.57560820  .00009552  00000+0  37438-3 0  9997
2 58807  43.0001 179.9947 0001080 257.5810 102.4920 15.25923197 13489
STARLINK-31174          
1 58808U 24012X   24094.57334575 -.00000710  00000+0 -17308-4 0  9998
2 58808  43.0040 179.9788 0001181 275.1002  84.9714 15.25906828 13484
STARLINK-31169          
1 58809U 24012Y   24094.50563003 -.00003498  00000+0 -12399-3 0  9992
2 58809  43.0016 180.3301 0001254 277.6927  82.3782 15.25896600 13482
STARLINK-31233          
1 58826U 24017A   24094.47991805  .00005725  00000+0  21925-3 0  9995
2 58826  53.1601 248.5965 0001235  75.9586 284.1551 15.28008353 12089
STARLINK-31271          
1 58827U 24017B   24094.41016625  .00004000  00000+0  15703-3 0  9990
2 58827  53.1599 248.8717 0001637  82.0412 278.0773 15.28015212 11952
STARLINK-31222          
1 58828U 24017C   24093.82114193 -.00000919  00000+0 -20528-4 0  9993
2 58828  53.1606 251.5927 0001032  87.1163 272.9955 15.28032279 11861
STARLINK-31258          
1 58829U 24017D   24093.81679739  .00042077  00000+0  15226-2 0  9991
2 58829  53.1599 251.5651 0001811  83.2710 276.8496 15.28031659 11872
STARLINK-31253          
1 58830U 24017E   24094.40514154 -.00000923  00000+0 -20661-4 0  9995
2 58830  53.1597 248.8349 0001683 126.1399 233.9757 15.28022093 11957
STARLINK-31232          
1 58831U 24017F   24094.40080681  .00004126  00000+0  16156-3 0  9999
2 58831  53.1587 248.8115 0001315  64.5989 295.5147 15.28014692 11953
STARLINK-31263          
1 58832U 24017G   24094.40045560  .00024130  00000+0  88005-3 0  9996
2 58832  53.1570 248.8081 0001199  75.8228 284.2905 15.28054932 12060
STARLINK-31175          
1 58833U 24017H   24094.45641250  .00026750  00000+0  99878-3 0  9990
2 58833  53.1569 248.4364 0001374  57.9735 302.1398 15.27222048 11966
STARLINK-31171          
1 58834U 24017J   24094.46118774  .00000804  00000+0  41703-4 0  9999
2 58834  53.1581 248.4773 0001342  78.8342 281.2808 15.28000664 11968
STARLINK-31246          
1 58835U 24017K   24094.45685723  .00012049  00000+0  44693-3 0  9996
2 58835  53.1566 248.4503 0001391  86.5193 273.5966 15.28021939 11964
STARLINK-31251          
1 58836U 24017L   24094.45217566  .00059421  00000+0  21391-2 0  9997
2 58836  53.1568 248.4194 0001417  83.4969 276.6192 15.28045608 12076
STARLINK-31172          
1 58837U 24017M   24094.40901423  .00003928  00000+0  15447-3 0  9992
2 58837  53.1611 245.3007 0002103 102.2203 257.9032 15.28010825 12000
STARLINK-31249          
1 58838U 24017N   24094.45183474  .00000759  00000+0  40054-4 0  9998
2 58838  53.1570 248.4174 0001120  78.1050 282.0075 15.28016380 11965
STARLINK-31250          
1 58839U 24017P   24094.44749829  .00009492  00000+0  35488-3 0  9997
2 58839  53.1578 248.3924 0001255  64.3323 295.7806 15.28024297 11919
STARLINK-31248          
1 58840U 24017Q   24093.85414578  .00034033  00000+0  12349-2 0  9992
2 58840  53.1576 251.0856 0001276  60.9679 299.1449 15.28041218 11994
STARLINK-31236          
1 58841U 24017R   24094.44715458  .00005386  00000+0  20700-3 0  9990
2 58841  53.1578 248.3903 0000777  79.9819 280.1268 15.28014728 11962
STARLINK-31228          
1 58842U 24017S   24094.44247449 -.00000299  00000+0  18696-5 0  9993
2 58842  53.1598 248.3574 0001293  39.2125 320.8968 15.28025063 11965
STARLINK-31280          
1 58843U 24017T   24094.43814021  .00001571  00000+0  69401-4 0  9991
2 58843  53.1580 248.3273 0000943  72.0617 288.0485 15.28006680 11968
STARLINK-31269          
1 58844U 24017U   24094.44329075  .00001053  00000+0  92937-4 0  9998
2 58844  53.1601 252.5467 0001250  83.0403 277.0729 15.04922090 11901
STARLINK-31264          
1 58845U 24017V   24094.47322429 -.00000194  00000+0  58275-5 0  9992
2 58845  53.1605 252.0294 0001304  92.9768 267.1371 15.04923526 11911
STARLINK-31273          
1 58846U 24017W   24094.43780904  .00011210  00000+0  41681-3 0  9996
2 58846  53.1595 248.3292 0001037  84.7817 275.3301 15.28017321 11965
STARLINK-31262          
1 58847U 24017X   24094.60295944  .00022890  00000+0  16118-2 0  9993
2 58847  53.1579 252.1131 0001411  80.7988 279.3162 15.04956878 11922
STARLINK-31238          
1 58853U 24019A   24094.58334491 -.00028142  00000+0 -10453-2 0  9994
2 58853  42.9964 262.9830 0001881 283.4184 258.9420 15.26680737  5889
